[{"OBJECT_NAME":"TEVEL2-6","OBJECT_ID":"2025-052F","EPOCH":"2026-03-09T15:35:24.554400","MEAN_MOTION":15.30760889,"ECCENTRICITY":0.0004769,"INCLINATION":97.4016,"RA_OF_ASC_NODE":325.0381,"ARG_OF_PERICENTER":95.6604,"MEAN_ANOMALY":264.5181,"EPHEMERIS_TYPE":0,"CLASSIFICATION_TYPE":"U","NORAD_CAT_ID":63215,"ELEMENT_SET_NO":999,"REV_AT_EPOCH":5486,"BSTAR":0.00070909,"MEAN_MOTION_DOT":0.00021046,"MEAN_MOTION_DDOT":0},{"OBJECT_NAME":"STARLINK-35644","OBJECT_ID":"2025-257Y","EPOCH":"2026-03-09T15:21:41.019840","MEAN_MOTION":15.3019286,"ECCENTRICITY":9.9e-5,"INCLINATION":53.1577,"RA_OF_ASC_NODE":217.407,"ARG_OF_PERICENTER":86.7928,"MEAN_ANOMALY":273.3186,"EPHEMERIS_TYPE":0,"CLASSIFICATION_TYPE":"U","NORAD_CAT_ID":66402,"ELEMENT_SET_NO":999,"REV_AT_EPOCH":1971,"BSTAR":0.00039372,"MEAN_MOTION_DOT":0.00011317,"MEAN_MOTION_DDOT":0}]
